{
  "type": "FeatureCollection",
  "features": [
    {"type": "Feature", "geometry": {"type": "Point", "coordinates": [4.33298598360656,44.6004718852459]}, "properties": {"id": 1, "department_code": "07", "zip_code": "07200", "location": "", "day": "" , "from": "" , "to": "" , "durate": "" , "name": "Ailhon"}},
    {"type": "Feature", "geometry": {"type": "Point", "coordinates": [4.59547974452555,44.55347145985403]}, "properties": {"id": 4, "department_code": "07", "zip_code": "07400", "location": "", "day": "" , "from": "" , "to": "" , "durate": "" , "name": "Alba-la-Romaine"}},
    {"type": "Feature", "geometry": {"type": "Point", "coordinates": [4.41797432098765,44.81930845679015]}, "properties": {"id": 5, "department_code": "07", "zip_code": "07190", "location": "", "day": "" , "from": "" , "to": "" , "durate": "" , "name": "Albon-d'Ardèche"}},
    {"type": "Feature", "geometry": {"type": "Point", "coordinates": [4.79337940476191,45.22684880952381]}, "properties": {"id": 8, "department_code": "07", "zip_code": "07340", "location": "", "day": "" , "from": "" , "to": "" , "durate": "" , "name": "Andance"}},
    {"type": "Feature", "geometry": {"type": "Point", "coordinates": [4.65341196141479,45.2443633762058]}, "properties": {"id": 9, "department_code": "07", "zip_code": "07100", "location": "", "day": "" , "from": "" , "to": "" , "durate": "" , "name": "Annonay"}},
    {"type": "Feature", "geometry": {"type": "Point", "coordinates": [4.3569392,44.73457017777783]}, "properties": {"id": 10, "department_code": "07", "zip_code": "07530", "location": "", "day": "" , "from": "" , "to": "" , "durate": "" , "name": "Antraigues-sur-Volane"}},
    {"type": "Feature", "geometry": {"type": "Point", "coordinates": [4.39175957055215,44.61327699386505]}, "properties": {"id": 18, "department_code": "07", "zip_code": "07200", "location": "", "day": "" , "from": "" , "to": "" , "durate": "" , "name": "Aubenas"}},
    {"type": "Feature", "geometry": {"type": "Point", "coordinates": [4.3794096969697,44.50245734848486]}, "properties": {"id": 21, "department_code": "07", "zip_code": "07120", "location": "", "day": "" , "from": "" , "to": "" , "durate": "" , "name": "Balazuc"}},
    {"type": "Feature", "geometry": {"type": "Point", "coordinates": [4.1322624497991995,44.8578591967872]}, "properties": {"id": 24, "department_code": "07", "zip_code": "07630", "location": "", "day": "" , "from": "" , "to": "" , "durate": "" , "name": "Le Béage"}},
    {"type": "Feature", "geometry": {"type": "Point", "coordinates": [4.79134162162162,44.83393513513513]}, "properties": {"id": 25, "department_code": "07", "zip_code": "07800", "location": "", "day": "" , "from": "" , "to": "" , "durate": "" , "name": "Beauchastel"}},
    {"type": "Feature", "geometry": {"type": "Point", "coordinates": [4.25411540816326,44.35740306122448]}, "properties": {"id": 26, "department_code": "07", "zip_code": "07460", "location": "", "day": "" , "from": "" , "to": "" , "durate": "" , "name": "Beaulieu"}},
    {"type": "Feature", "geometry": {"type": "Point", "coordinates": [4.17150531914894,44.53813835106383]}, "properties": {"id": 27, "department_code": "07", "zip_code": "07110", "location": "", "day": "" , "from": "" , "to": "" , "durate": "" , "name": "Beaumont"}},
    {"type": "Feature", "geometry": {"type": "Point", "coordinates": [4.20915731578947,44.38418994736841]}, "properties": {"id": 29, "department_code": "07", "zip_code": "07460", "location": "", "day": "" , "from": "" , "to": "" , "durate": "" , "name": "Berrias-et-Casteljau"}},
    {"type": "Feature", "geometry": {"type": "Point", "coordinates": [4.24444723502304,44.89718894009217]}, "properties": {"id": 35, "department_code": "07", "zip_code": "07310", "location": "", "day": "" , "from": "" , "to": "" , "durate": "" , "name": "Borée"}},
    {"type": "Feature", "geometry": {"type": "Point", "coordinates": [4.64933867924528,45.26756295597485]}, "properties": {"id": 39, "department_code": "07", "zip_code": "07100", "location": "", "day": "" , "from": "" , "to": "" , "durate": "" , "name": "Boulieu-lès-Annonay"}},
    {"type": "Feature", "geometry": {"type": "Point", "coordinates": [4.6127656779661,44.37930466101696]}, "properties": {"id": 40, "department_code": "07", "zip_code": "07700", "location": "", "day": "" , "from": "" , "to": "" , "durate": "" , "name": "Bourg-Saint-Andéol"}},
    {"type": "Feature", "geometry": {"type": "Point", "coordinates": [4.24078653179191,44.74723826589597]}, "properties": {"id": 42, "department_code": "07", "zip_code": "07450", "location": "", "day": "" , "from": "" , "to": "" , "durate": "" , "name": "Burzet"}},
    {"type": "Feature", "geometry": {"type": "Point", "coordinates": [4.8342317999999995,44.86543300000002]}, "properties": {"id": 51, "department_code": "07", "zip_code": "07800", "location": "", "day": "" , "from": "" , "to": "" , "durate": "" , "name": "Charmes-sur-Rhône"}},
    {"type": "Feature", "geometry": {"type": "Point", "coordinates": [4.29424138297872,44.56498117021273]}, "properties": {"id": 53, "department_code": "07", "zip_code": "07110", "location": "", "day": "" , "from": "" , "to": "" , "durate": "" , "name": "Chassiers"}},
    {"type": "Feature", "geometry": {"type": "Point", "coordinates": [4.7439159047619,45.13041304761902]}, "properties": {"id": 58, "department_code": "07", "zip_code": "07300", "location": "", "day": "" , "from": "" , "to": "" , "durate": "" , "name": "Cheminas"}},
    {"type": "Feature", "geometry": {"type": "Point", "coordinates": [4.42181730263158,44.91144197368421]}, "properties": {"id": 59, "department_code": "07", "zip_code": "07160", "location": "", "day": "" , "from": "" , "to": "" , "durate": "" , "name": "Le Cheylard"}},
    {"type": "Feature", "geometry": {"type": "Point", "coordinates": [4.29331018691589,44.68793971962616]}, "properties": {"id": 60, "department_code": "07", "zip_code": "07380", "location": "", "day": "" , "from": "" , "to": "" , "durate": "" , "name": "Chirols"}},
    {"type": "Feature", "geometry": {"type": "Point", "coordinates": [4.66854012820513,44.7068773076923]}, "properties": {"id": 61, "department_code": "07", "zip_code": "07210", "location": "", "day": "" , "from": "" , "to": "" , "durate": "" , "name": "Chomérac"}},
    {"type": "Feature", "geometry": {"type": "Point", "coordinates": [3.95939470588235,44.79079239215685]}, "properties": {"id": 66, "department_code": "07", "zip_code": "07470", "location": "", "day": "" , "from": "" , "to": "" , "durate": "" , "name": "Coucouron"}},
    {"type": "Feature", "geometry": {"type": "Point", "coordinates": [4.6205654945055,44.7432401098901]}, "properties": {"id": 67, "department_code": "07", "zip_code": "07000", "location": "", "day": "" , "from": "" , "to": "" , "durate": "" , "name": "Coux"}},
    {"type": "Feature", "geometry": {"type": "Point", "coordinates": [4.1206748,44.8605226]}, "properties": {"id": 71, "department_code": "07", "zip_code": "07630", "location": "", "day": "" , "from": "" , "to": "" , "durate": "" , "name": "Cros-de-Géorand"}},
    {"type": "Feature", "geometry": {"type": "Point", "coordinates": [4.75357666666667,44.66134196969698]}, "properties": {"id": 72, "department_code": "07", "zip_code": "07350", "location": "", "day": "" , "from": "" , "to": "" , "durate": "" , "name": "Cruas"}},
    {"type": "Feature", "geometry": {"type": "Point", "coordinates": [4.51604607329843,44.65737204188479]}, "properties": {"id": 73, "department_code": "07", "zip_code": "07170", "location": "", "day": "" , "from": "" , "to": "" , "durate": "" , "name": "Darbres"}},
    {"type": "Feature", "geometry": {"type": "Point", "coordinates": [4.69237084337349,45.25269084337351]}, "properties": {"id": 74, "department_code": "07", "zip_code": "07430", "location": "", "day": "" , "from": "" , "to": "" , "durate": "" , "name": "Davézieux"}},
    {"type": "Feature", "geometry": {"type": "Point", "coordinates": [4.39704387351779,45.06878790513838]}, "properties": {"id": 76, "department_code": "07", "zip_code": "07320", "location": "", "day": "" , "from": "" , "to": "" , "durate": "" , "name": "Devesset"}},
    {"type": "Feature", "geometry": {"type": "Point", "coordinates": [4.38492063197026,44.73305728624534]}, "properties": {"id": 89, "department_code": "07", "zip_code": "07530", "location": "", "day": "" , "from": "" , "to": "" , "durate": "" , "name": "Genestelle"}},
    {"type": "Feature", "geometry": {"type": "Point", "coordinates": [4.85984485714286,44.93222514285715]}, "properties": {"id": 98, "department_code": "07", "zip_code": "07500", "location": "", "day": "" , "from": "" , "to": "" , "durate": "" , "name": "Guilherand-Granges"}},
    {"type": "Feature", "geometry": {"type": "Point", "coordinates": [4.23987017699115,44.63100734513274]}, "properties": {"id": 105, "department_code": "07", "zip_code": "07380", "location": "", "day": "" , "from": "" , "to": "" , "durate": "" , "name": "Jaujac"}},
    {"type": "Feature", "geometry": {"type": "Point", "coordinates": [4.24372533333333,44.47343822222221]}, "properties": {"id": 108, "department_code": "07", "zip_code": "07260", "location": "", "day": "" , "from": "" , "to": "" , "durate": "" , "name": "Joyeuse"}},
    {"type": "Feature", "geometry": {"type": "Point", "coordinates": [4.31283762962963,44.46527007407408]}, "properties": {"id": 113, "department_code": "07", "zip_code": "07120", "location": "", "day": "" , "from": "" , "to": "" , "durate": "" , "name": "Labeaume"}},
    {"type": "Feature", "geometry": {"type": "Point", "coordinates": [4.20880808080808,44.46207868686871]}, "properties": {"id": 115, "department_code": "07", "zip_code": "07230", "location": "", "day": "" , "from": "" , "to": "" , "durate": "" , "name": "Lablachère"}},
    {"type": "Feature", "geometry": {"type": "Point", "coordinates": [4.17399671641791,44.59199074626869]}, "properties": {"id": 116, "department_code": "07", "zip_code": "07110", "location": "", "day": "" , "from": "" , "to": "" , "durate": "" , "name": "Laboule"}},
    {"type": "Feature", "geometry": {"type": "Point", "coordinates": [4.07424882352941,44.82589952941178]}, "properties": {"id": 117, "department_code": "07", "zip_code": "07470", "location": "", "day": "" , "from": "" , "to": "" , "durate": "" , "name": "Le Lac-d'Issarlès"}},
    {"type": "Feature", "geometry": {"type": "Point", "coordinates": [4.01573324929972,44.81214977591039]}, "properties": {"id": 119, "department_code": "07", "zip_code": "07470", "location": "", "day": "" , "from": "" , "to": "" , "durate": "" , "name": "Lachapelle-Graillouse"}},
    {"type": "Feature", "geometry": {"type": "Point", "coordinates": [4.42713783783784,44.44129632432432]}, "properties": {"id": 123, "department_code": "07", "zip_code": "07150", "location": "", "day": "" , "from": "" , "to": "" , "durate": "" , "name": "Lagorce"}},
    {"type": "Feature", "geometry": {"type": "Point", "coordinates": [4.52121634920635,45.11394873015874]}, "properties": {"id": 125, "department_code": "07", "zip_code": "07520", "location": "", "day": "" , "from": "" , "to": "" , "durate": "" , "name": "Lalouvesc"}},
    {"type": "Feature", "geometry": {"type": "Point", "coordinates": [4.5942376156583595,44.983244341637]}, "properties": {"id": 126, "department_code": "07", "zip_code": "07270", "location": "", "day": "" , "from": "" , "to": "" , "durate": "" , "name": "Lamastre"}},
    {"type": "Feature", "geometry": {"type": "Point", "coordinates": [4.38736510204082,44.53343897959185]}, "properties": {"id": 128, "department_code": "07", "zip_code": "07200", "location": "", "day": "" , "from": "" , "to": "" , "durate": "" , "name": "Lanas"}},
    {"type": "Feature", "geometry": {"type": "Point", "coordinates": [4.299646015625,44.5354665625]}, "properties": {"id": 129, "department_code": "07", "zip_code": "07110", "location": "", "day": "" , "from": "" , "to": "" , "durate": "" , "name": "Largentière"}},
    {"type": "Feature", "geometry": {"type": "Point", "coordinates": [4.59731063636364,44.45466918181817]}, "properties": {"id": 130, "department_code": "07", "zip_code": "07220", "location": "", "day": "" , "from": "" , "to": "" , "durate": "" , "name": "Larnas"}},
    {"type": "Feature", "geometry": {"type": "Point", "coordinates": [4.28452733333333,44.50944770370371]}, "properties": {"id": 131, "department_code": "07", "zip_code": "07110", "location": "", "day": "" , "from": "" , "to": "" , "durate": "" , "name": "Laurac-en-Vivarais"}},
    {"type": "Feature", "geometry": {"type": "Point", "coordinates": [4.07085171875,44.34716734375002]}, "properties": {"id": 145, "department_code": "07", "zip_code": "07140", "location": "", "day": "" , "from": "" , "to": "" , "durate": "" , "name": "Malbosc"}},
    {"type": "Feature", "geometry": {"type": "Point", "coordinates": [4.3506830769230795,44.62808170940171]}, "properties": {"id": 152, "department_code": "07", "zip_code": "07200", "location": "", "day": "" , "from": "" , "to": "" , "durate": "" , "name": "Mercuer"}},
    {"type": "Feature", "geometry": {"type": "Point", "coordinates": [4.69942068965517,44.61782120689656]}, "properties": {"id": 154, "department_code": "07", "zip_code": "07400", "location": "", "day": "" , "from": "" , "to": "" , "durate": "" , "name": "Meysse"}},
    {"type": "Feature", "geometry": {"type": "Point", "coordinates": [4.19820553846154,44.71673517948719]}, "properties": {"id": 158, "department_code": "07", "zip_code": "07560", "location": "", "day": "" , "from": "" , "to": "" , "durate": "" , "name": "Montpezat-sous-Bauzon"}},
    {"type": "Feature", "geometry": {"type": "Point", "coordinates": [4.619039,44.80841757142858]}, "properties": {"id": 163, "department_code": "07", "zip_code": "07360", "location": "", "day": "" , "from": "" , "to": "" , "durate": "" , "name": "Les Ollières-sur-Eyrieux"}},
    {"type": "Feature", "geometry": {"type": "Point", "coordinates": [4.14796523076923,44.45545569230769]}, "properties": {"id": 167, "department_code": "07", "zip_code": "07230", "location": "", "day": "" , "from": "" , "to": "" , "durate": "" , "name": "Payzac"}},
    {"type": "Feature", "geometry": {"type": "Point", "coordinates": [4.7407987654321,45.28501209876544]}, "properties": {"id": 168, "department_code": "07", "zip_code": "07340", "location": "", "day": "" , "from": "" , "to": "" , "durate": "" , "name": "Peaugres"}},
    {"type": "Feature", "geometry": {"type": "Point", "coordinates": [4.77615629213483,45.29515786516853]}, "properties": {"id": 170, "department_code": "07", "zip_code": "07340", "location": "", "day": "" , "from": "" , "to": "" , "durate": "" , "name": "Peyraud"}},
    {"type": "Feature", "geometry": {"type": "Point", "coordinates": [4.7463529113924,44.75150810126582]}, "properties": {"id": 176, "department_code": "07", "zip_code": "07250", "location": "", "day": "" , "from": "" , "to": "" , "durate": "" , "name": "Le Pouzin"}},
    {"type": "Feature", "geometry": {"type": "Point", "coordinates": [4.30785841121495,44.63383355140187]}, "properties": {"id": 177, "department_code": "07", "zip_code": "07380", "location": "", "day": "" , "from": "" , "to": "" , "durate": "" , "name": "Prades"}},
    {"type": "Feature", "geometry": {"type": "Point", "coordinates": [4.37694370786517,44.47192303370786]}, "properties": {"id": 178, "department_code": "07", "zip_code": "07120", "location": "", "day": "" , "from": "" , "to": "" , "durate": "" , "name": "Pradons"}},
    {"type": "Feature", "geometry": {"type": "Point", "coordinates": [4.59073454022988,44.72443155172416]}, "properties": {"id": 181, "department_code": "07", "zip_code": "07000", "location": "", "day": "" , "from": "" , "to": "" , "durate": "" , "name": "Privas"}},
    {"type": "Feature", "geometry": {"type": "Point", "coordinates": [4.70467066666667,45.19828133333332]}, "properties": {"id": 183, "department_code": "07", "zip_code": "07290", "location": "", "day": "" , "from": "" , "to": "" , "durate": "" , "name": "Quintenas"}},
    {"type": "Feature", "geometry": {"type": "Point", "coordinates": [4.69134743055556,44.59023569444446]}, "properties": {"id": 186, "department_code": "07", "zip_code": "07400", "location": "", "day": "" , "from": "" , "to": "" , "durate": "" , "name": "Rochemaure"}},
    {"type": "Feature", "geometry": {"type": "Point", "coordinates": [4.26046729032258,44.49496058064519]}, "properties": {"id": 195, "department_code": "07", "zip_code": "07260", "location": "", "day": "" , "from": "" , "to": "" , "durate": "" , "name": "Rosières"}},
    {"type": "Feature", "geometry": {"type": "Point", "coordinates": [4.35435238095238,44.44928492063493]}, "properties": {"id": 197, "department_code": "07", "zip_code": "07120", "location": "", "day": "" , "from": "" , "to": "" , "durate": "" , "name": "Ruoms"}},
    {"type": "Feature", "geometry": {"type": "Point", "coordinates": [4.06845198412698,44.54389309523813]}, "properties": {"id": 198, "department_code": "07", "zip_code": "07260", "location": "", "day": "" , "from": "" , "to": "" , "durate": "" , "name": "Sablières"}},
    {"type": "Feature", "geometry": {"type": "Point", "coordinates": [4.4105217630854,44.99939283746557]}, "properties": {"id": 200, "department_code": "07", "zip_code": "07320", "location": "", "day": "" , "from": "" , "to": "" , "durate": "" , "name": "Saint-Agrève"}},
    {"type": "Feature", "geometry": {"type": "Point", "coordinates": [4.63142847826087,45.18362173913044]}, "properties": {"id": 201, "department_code": "07", "zip_code": "07790", "location": "", "day": "" , "from": "" , "to": "" , "durate": "" , "name": "Saint-Alban-d'Ay"}},
    {"type": "Feature", "geometry": {"type": "Point", "coordinates": [4.29143917241379,44.43512827586208]}, "properties": {"id": 203, "department_code": "07", "zip_code": "07120", "location": "", "day": "" , "from": "" , "to": "" , "durate": "" , "name": "Saint-Alban-Auriolles"}},
    {"type": "Feature", "geometry": {"type": "Point", "coordinates": [4.45160037383178,44.92598859813086]}, "properties": {"id": 218, "department_code": "07", "zip_code": "07160", "location": "", "day": "" , "from": "" , "to": "" , "durate": "" , "name": "Saint-Cierge-sous-le-Cheylard"}},
    {"type": "Feature", "geometry": {"type": "Point", "coordinates": [4.08905271111111,44.77002546666667]}, "properties": {"id": 220, "department_code": "07", "zip_code": "07510", "location": "", "day": "" , "from": "" , "to": "" , "durate": "" , "name": "Saint-Cirgues-en-Montagne"}},
    {"type": "Feature", "geometry": {"type": "Point", "coordinates": [4.68327873239437,45.27805507042254]}, "properties": {"id": 221, "department_code": "07", "zip_code": "07430", "location": "", "day": "" , "from": "" , "to": "" , "durate": "" , "name": "Saint-Clair"}},
    {"type": "Feature", "geometry": {"type": "Point", "coordinates": [3.97160697560975,44.6450058536585]}, "properties": {"id": 228, "department_code": "07", "zip_code": "07590", "location": "", "day": "" , "from": "" , "to": "" , "durate": "" , "name": "Saint-Étienne-de-Lugdarès"}},
    {"type": "Feature", "geometry": {"type": "Point", "coordinates": [4.18399535714286,44.82356148809523]}, "properties": {"id": 231, "department_code": "07", "zip_code": "07510", "location": "", "day": "" , "from": "" , "to": "" , "durate": "" , "name": "Sainte-Eulalie"}},
    {"type": "Feature", "geometry": {"type": "Point", "coordinates": [4.60726385,45.0745454]}, "properties": {"id": 232, "department_code": "07", "zip_code": "07410", "location": "", "day": "" , "from": "" , "to": "" , "durate": "" , "name": "Saint-Félicien"}},
    {"type": "Feature", "geometry": {"type": "Point", "coordinates": [4.7941393457944,45.0766908411215]}, "properties": {"id": 242, "department_code": "07", "zip_code": "07300", "location": "", "day": "" , "from": "" , "to": "" , "durate": "" , "name": "Saint-Jean-de-Muzols"}},
    {"type": "Feature", "geometry": {"type": "Point", "coordinates": [4.40248794871795,44.6617876923077]}, "properties": {"id": 250, "department_code": "07", "zip_code": "07200", "location": "", "day": "" , "from": "" , "to": "" , "durate": "" , "name": "Saint-Julien-du-Serre"}},
    {"type": "Feature", "geometry": {"type": "Point", "coordinates": [3.9678990438247,44.59334023904383]}, "properties": {"id": 258, "department_code": "07", "zip_code": "07590", "location": "", "day": "" , "from": "" , "to": "" , "durate": "" , "name": "Saint-Laurent-les-Bains"}},
    {"type": "Feature", "geometry": {"type": "Point", "coordinates": [4.5971605581395405,44.32478683720932]}, "properties": {"id": 260, "department_code": "07", "zip_code": "07700", "location": "", "day": "" , "from": "" , "to": "" , "durate": "" , "name": "Saint-Marcel-d'Ardèche"}},
    {"type": "Feature", "geometry": {"type": "Point", "coordinates": [4.25552066390042,44.86060970954359]}, "properties": {"id": 263, "department_code": "07", "zip_code": "07310", "location": "", "day": "" , "from": "" , "to": "" , "durate": "" , "name": "Saint-Martial"}},
    {"type": "Feature", "geometry": {"type": "Point", "coordinates": [4.57357714285714,44.30853285714286]}, "properties": {"id": 264, "department_code": "07", "zip_code": "07700", "location": "", "day": "" , "from": "" , "to": "" , "durate": "" , "name": "Saint-Martin-d'Ardèche"}},
    {"type": "Feature", "geometry": {"type": "Point", "coordinates": [4.36537097701149,44.93549057471265]}, "properties": {"id": 265, "department_code": "07", "zip_code": "07310", "location": "", "day": "" , "from": "" , "to": "" , "durate": "" , "name": "Saint-Martin-de-Valamas"}},
    {"type": "Feature", "geometry": {"type": "Point", "coordinates": [4.48808779279279,44.48197900900902]}, "properties": {"id": 268, "department_code": "07", "zip_code": "07170", "location": "", "day": "" , "from": "" , "to": "" , "durate": "" , "name": "Saint-Maurice-d'Ibie"}},
    {"type": "Feature", "geometry": {"type": "Point", "coordinates": [4.15796763513513,44.33336209459462]}, "properties": {"id": 275, "department_code": "07", "zip_code": "07460", "location": "", "day": "" , "from": "" , "to": "" , "durate": "" , "name": "Saint-Paul-le-Jeune"}},
    {"type": "Feature", "geometry": {"type": "Point", "coordinates": [4.82531068807339,44.93951403669722]}, "properties": {"id": 276, "department_code": "07", "zip_code": "07130", "location": "", "day": "" , "from": "" , "to": "" , "durate": "" , "name": "Saint-Péray"}},
    {"type": "Feature", "geometry": {"type": "Point", "coordinates": [4.48291366666667,45.12248638888888]}, "properties": {"id": 280, "department_code": "07", "zip_code": "07520", "location": "", "day": "" , "from": "" , "to": "" , "durate": "" , "name": "Saint-Pierre-sur-Doux"}},
    {"type": "Feature", "geometry": {"type": "Point", "coordinates": [4.48812722513089,44.82238136125658]}, "properties": {"id": 281, "department_code": "07", "zip_code": "07190", "location": "", "day": "" , "from": "" , "to": "" , "durate": "" , "name": "Saint-Pierreville"}},
    {"type": "Feature", "geometry": {"type": "Point", "coordinates": [4.49150798206278,44.37709452914797]}, "properties": {"id": 286, "department_code": "07", "zip_code": "07700", "location": "", "day": "" , "from": "" , "to": "" , "durate": "" , "name": "Saint-Remèze"}},
    {"type": "Feature", "geometry": {"type": "Point", "coordinates": [4.57288803370786,44.8218041011236]}, "properties": {"id": 290, "department_code": "07", "zip_code": "07190", "location": "", "day": "" , "from": "" , "to": "" , "durate": "" , "name": "Saint-Sauveur-de-Montagut"}},
    {"type": "Feature", "geometry": {"type": "Point", "coordinates": [4.70647638655462,44.66129621848739]}, "properties": {"id": 297, "department_code": "07", "zip_code": "07210", "location": "", "day": "" , "from": "" , "to": "" , "durate": "" , "name": "Saint-Vincent-de-Barrès"}},
    {"type": "Feature", "geometry": {"type": "Point", "coordinates": [4.36184107526882,44.3875311827957]}, "properties": {"id": 299, "department_code": "07", "zip_code": "07150", "location": "", "day": "" , "from": "" , "to": "" , "durate": "" , "name": "Salavas"}},
    {"type": "Feature", "geometry": {"type": "Point", "coordinates": [4.3322956097561,44.41076024390244]}, "properties": {"id": 301, "department_code": "07", "zip_code": "07120", "location": "", "day": "" , "from": "" , "to": "" , "durate": "" , "name": "Sampzon"}},
    {"type": "Feature", "geometry": {"type": "Point", "coordinates": [4.23223775700935,44.53211191588786]}, "properties": {"id": 302, "department_code": "07", "zip_code": "07110", "location": "", "day": "" , "from": "" , "to": "" , "durate": "" , "name": "Sanilhac"}},
    {"type": "Feature", "geometry": {"type": "Point", "coordinates": [4.77877832167832,45.18664202797202]}, "properties": {"id": 303, "department_code": "07", "zip_code": "07370", "location": "", "day": "" , "from": "" , "to": "" , "durate": "" , "name": "Sarras"}},
    {"type": "Feature", "geometry": {"type": "Point", "coordinates": [4.58764880952381,45.14610114285713]}, "properties": {"id": 304, "department_code": "07", "zip_code": "07290", "location": "", "day": "" , "from": "" , "to": "" , "durate": "" , "name": "Satillieu"}},
    {"type": "Feature", "geometry": {"type": "Point", "coordinates": [4.75846051282051,45.31586564102566]}, "properties": {"id": 308, "department_code": "07", "zip_code": "07340", "location": "", "day": "" , "from": "" , "to": "" , "durate": "" , "name": "Serrières"}},
    {"type": "Feature", "geometry": {"type": "Point", "coordinates": [4.20791544217687,44.67515911564623]}, "properties": {"id": 316, "department_code": "07", "zip_code": "07330", "location": "", "day": "" , "from": "" , "to": "" , "durate": "" , "name": "Thueyts"}},
    {"type": "Feature", "geometry": {"type": "Point", "coordinates": [4.80980860294118,45.0495985294118]}, "properties": {"id": 318, "department_code": "07", "zip_code": "07300", "location": "", "day": "" , "from": "" , "to": "" , "durate": "" , "name": "Tournon-sur-Rhône"}},
    {"type": "Feature", "geometry": {"type": "Point", "coordinates": [4.16692143884892,44.77407323741004]}, "properties": {"id": 320, "department_code": "07", "zip_code": "07510", "location": "", "day": "" , "from": "" , "to": "" , "durate": "" , "name": "Usclades-et-Rieutord"}},
    {"type": "Feature", "geometry": {"type": "Point", "coordinates": [4.11671677419355,44.58768491935485]}, "properties": {"id": 323, "department_code": "07", "zip_code": "07110", "location": "", "day": "" , "from": "" , "to": "" , "durate": "" , "name": "Valgorge"}},
    {"type": "Feature", "geometry": {"type": "Point", "coordinates": [4.40896869955157,44.40105686098658]}, "properties": {"id": 324, "department_code": "07", "zip_code": "07150", "location": "", "day": "" , "from": "" , "to": "" , "durate": "" , "name": "Vallon-Pont-d'Arc"}},
    {"type": "Feature", "geometry": {"type": "Point", "coordinates": [4.34485541984733,44.67097557251909]}, "properties": {"id": 325, "department_code": "07", "zip_code": "07600", "location": "", "day": "" , "from": "" , "to": "" , "durate": "" , "name": "Vals-les-Bains"}},
    {"type": "Feature", "geometry": {"type": "Point", "coordinates": [4.11765137313433,44.39292014925375]}, "properties": {"id": 328, "department_code": "07", "zip_code": "07140", "location": "", "day": "" , "from": "" , "to": "" , "durate": "" , "name": "Les Vans"}},
    {"type": "Feature", "geometry": {"type": "Point", "coordinates": [4.64277098113207,44.90296562264152]}, "properties": {"id": 332, "department_code": "07", "zip_code": "07240", "location": "", "day": "" , "from": "" , "to": "" , "durate": "" , "name": "Vernoux-en-Vivarais"}},
    {"type": "Feature", "geometry": {"type": "Point", "coordinates": [4.4414466,44.65333045000003]}, "properties": {"id": 333, "department_code": "07", "zip_code": "07200", "location": "", "day": "" , "from": "" , "to": "" , "durate": "" , "name": "Vesseaux"}},
    {"type": "Feature", "geometry": {"type": "Point", "coordinates": [4.51030901639344,44.55030094262298]}, "properties": {"id": 335, "department_code": "07", "zip_code": "07170", "location": "", "day": "" , "from": "" , "to": "" , "durate": "" , "name": "Villeneuve-de-Berg"}},
    {"type": "Feature", "geometry": {"type": "Point", "coordinates": [4.59569133333333,45.22578411111112]}, "properties": {"id": 336, "department_code": "07", "zip_code": "07690", "location": "", "day": "" , "from": "" , "to": "" , "durate": "" , "name": "Villevocance"}},
    {"type": "Feature", "geometry": {"type": "Point", "coordinates": [4.32951598484848,44.54766234848486]}, "properties": {"id": 337, "department_code": "07", "zip_code": "07110", "location": "", "day": "" , "from": "" , "to": "" , "durate": "" , "name": "Vinezac"}},
    {"type": "Feature", "geometry": {"type": "Point", "coordinates": [4.79386357894737,45.1123152631579]}, "properties": {"id": 339, "department_code": "07", "zip_code": "07610", "location": "", "day": "" , "from": "" , "to": "" , "durate": "" , "name": "Vion"}},
    {"type": "Feature", "geometry": {"type": "Point", "coordinates": [4.66175109375,44.48603671874998]}, "properties": {"id": 340, "department_code": "07", "zip_code": "07220", "location": "", "day": "" , "from": "" , "to": "" , "durate": "" , "name": "Viviers"}},
    {"type": "Feature", "geometry": {"type": "Point", "coordinates": [4.56312776,45.19948072]}, "properties": {"id": 341, "department_code": "07", "zip_code": "07690", "location": "", "day": "" , "from": "" , "to": "" , "durate": "" , "name": "Vocance"}},
    {"type": "Feature", "geometry": {"type": "Point", "coordinates": [4.41391142857143,44.55305294117647]}, "properties": {"id": 342, "department_code": "07", "zip_code": "07200", "location": "", "day": "" , "from": "" , "to": "" , "durate": "" , "name": "Vogüé"}},
    {"type": "Feature", "geometry": {"type": "Point", "coordinates": [4.77820975,44.80111075000001]}, "properties": {"id": 343, "department_code": "07", "zip_code": "07800", "location": "", "day": "" , "from": "" , "to": "" , "durate": "" , "name": "La Voulte-sur-Rhône"}}
]
}